$$SOE
2460721.500000000, A.D. 2025-Feb-15 00:00:00.0000, 2.071190867094994E+08, -4.615014689263513E+08, 3.230288059785277E+06,
2460728.500000000, A.D. 2025-Feb-22 00:00:00.0000, 2.152173983471986E+08, -4.564252823627774E+08, 3.213100664805591E+06,
2460735.500000000, A.D. 2025-Mar-01 00:00:00.0000, 2.232344071871955E+08, -4.511767395446660E+08, 3.194699365407288E+06,
2460742.500000000, A.D. 2025-Mar-08 00:00:00.0000, 2.311664637594293E+08, -4.457565616582220E+08, 3.175081858154118E+06,
2460749.500000000, A.D. 2025-Mar-15 00:00:00.0000, 2.390098948028652E+08, -4.401655390274339E+08, 3.154246240060836E+06,
2460756.500000000, A.D. 2025-Mar-22 00:00:00.0000, 2.467610018249267E+08, -4.344045326302279E+08, 3.132191266022712E+06,
2460763.500000000, A.D. 2025-Mar-29 00:00:00.0000, 2.544160611092048E+08, -4.284744779044359E+08, 3.108916297756255E+06,
2460770.500000000, A.D. 2025-Apr-05 00:00:00.0000, 2.619713255011944E+08, -4.223763877034106E+08, 3.084421170596182E+06,
2460777.500000000, A.D. 2025-Apr-12 00:00:00.0000, 2.694230260504853E+08, -4.161113542957498E+08, 3.058706163041651E+06,
2460784.500000000, A.D. 2025-Apr-19 00:00:00.0000, 2.767673733264071E+08, -4.096805512883836E+08, 3.031772013936609E+06,
2460791.500000000, A.D. 2025-Apr-26 00:00:00.0000, 2.840005586830404E+08, -4.030852356735182E+08, 3.003619945521623E+06,
2460798.500000000, A.D. 2025-May-03 00:00:00.0000, 2.911187555915985E+08, -3.963267499774433E+08, 2.974251683283716E+06,
2460805.500000000, A.D. 2025-May-10 00:00:00.0000, 2.981181210730520E+08, -3.894065244994337E+08, 2.943669470501989E+06,
2460812.500000000, A.D. 2025-May-17 00:00:00.0000, 3.049947972719675E+08, -3.823260796782196E+08, 2.911876070594519E+06,
2460819.500000000, A.D. 2025-May-24 00:00:00.0000, 3.117449133499495E+08, -3.750870286365173E+08, 2.878874736730784E+06,
2460826.500000000, A.D. 2025-May-31 00:00:00.0000, 3.183645881213198E+08, -3.676910795887828E+08, 2.844669135792136E+06,
2460833.500000000, A.D. 2025-Jun-07 00:00:00.0000, 3.248499330347293E+08, -3.601400369040624E+08, 2.809263362020284E+06,
2460840.500000000, A.D. 2025-Jun-14 00:00:00.0000, 3.311970531394351E+08, -3.524358014868677E+08, 2.772662202777848E+06,
2460847.500000000, A.D. 2025-Jun-21 00:00:00.0000, 3.374020472552447E+08, -3.445803737410427E+08, 2.734871277294531E+06,
2460854.500000000, A.D. 2025-Jun-28 00:00:00.0000, 3.434610104778363E+08, -3.365758573440149E+08, 2.695896905470431E+06,
2460861.500000000, A.D. 2025-Jul-05 00:00:00.0000, 3.493700375080349E+08, -3.284244616678179E+08, 2.655746022025168E+06,
2460868.500000000, A.D. 2025-Jul-12 00:00:00.0000, 3.551252256198251E+08, -3.201285036460315E+08, 2.614426179481789E+06,
2460875.500000000, A.D. 2025-Jul-19 00:00:00.0000, 3.607226774620854E+08, -3.116904096559508E+08, 2.571945575731695E+06,
2460882.500000000, A.D. 2025-Jul-26 00:00:00.0000, 3.661585039085783E+08, -3.031127174667934E+08, 2.528313082472682E+06,
2460889.500000000, A.D. 2025-Aug-02 00:00:00.0000, 3.714288270251169E+08, -2.943980782259549E+08, 2.483538270455375E+06,
2460896.500000000, A.D. 2025-Aug-09 00:00:00.0000, 3.765297831798171E+08, -2.855492584905397E+08, 2.437631428321391E+06,
2460903.500000000, A.D. 2025-Aug-16 00:00:00.0000, 3.814575263749767E+08, -2.765691423585483E+08, 2.390603562868550E+06,
2460910.500000000, A.D. 2025-Aug-23 00:00:00.0000, 3.862082320945956E+08, -2.674607336728195E+08, 2.342466355292931E+06,
2460917.500000000, A.D. 2025-Aug-30 00:00:00.0000, 3.907781019988174E+08, -2.582271575725705E+08, 2.293232101764068E+06,
2460924.500000000, A.D. 2025-Sep-06 00:00:00.0000, 3.951633680503688E+08, -2.488716603820550E+08, 2.242913850497693E+06,
2460931.500000000, A.D. 2025-Sep-13 00:00:00.0000, 3.993602944040973E+08, -2.393976103093872E+08, 2.191525685898960E+06,
2460938.500000000, A.D. 2025-Sep-20 00:00:00.0000, 4.033651803329045E+08, -2.298085005883133E+08, 2.139082725188270E+06,
2460945.500000000, A.D. 2025-Sep-27 00:00:00.0000, 4.071743652492253E+08, -2.201079519388309E+08, 2.085600984771922E+06,
2460952.500000000, A.D. 2025-Oct-04 00:00:00.0000, 4.107842338062888E+08, -2.102997137956256E+08, 2.031097345546395E+06,
2460959.500000000, A.D. 2025-Oct-11 00:00:00.0000, 4.141912207053752E+08, -2.003876652355479E+08, 1.975589574419484E+06,
2460966.500000000, A.D. 2025-Oct-18 00:00:00.0000, 4.173918154914064E+08, -1.903758158661566E+08, 1.919096353578642E+06,
2460973.500000000, A.D. 2025-Oct-25 00:00:00.0000, 4.203825674741324E+08, -1.802683066512924E+08, 1.861637305500962E+06,
2460980.500000000, A.D. 2025-Nov-01 00:00:00.0000, 4.231600908111983E+08, -1.700694106447024E+08, 1.803233011179142E+06,
2460987.500000000, A.D. 2025-Nov-08 00:00:00.0000, 4.257210697834501E+08, -1.597835336493621E+08, 1.743905015576288E+06,
2460994.500000000, A.D. 2025-Nov-15 00:00:00.0000, 4.280622644046109E+08, -1.494152148469111E+08, 1.683675801594503E+06,
2461001.500000000, A.D. 2025-Nov-22 00:00:00.0000, 4.301805167607808E+08, -1.389691271619411E+08, 1.622568713172078E+06,
2461008.500000000, A.D. 2025-Nov-29 00:00:00.0000, 4.320727579195585E+08, -1.284500762101756E+08, 1.560607934051111E+06,
2461015.500000000, A.D. 2025-Dec-06 00:00:00.0000, 4.337360131253567E+08, -1.178629979521369E+08, 1.497818719929524E+06,
2461022.500000000, A.D. 2025-Dec-13 00:00:00.0000, 4.351674057057514E+08, -1.072129584096502E+08, 1.434227568526104E+06,
2461029.500000000, A.D. 2025-Dec-20 00:00:00.0000, 4.363641631696644E+08, -9.650515440744779E+07, 1.369862090345703E+06,
2461036.500000000, A.D. 2025-Dec-27 00:00:00.0000, 4.373236244112095E+08, -8.574491273311758E+07, 1.304750890190933E+06,
2461043.500000000, A.D. 2026-Jan-03 00:00:00.0000, 4.380432465475891E+08, -7.493768831638159E+07, 1.238923542898782E+06,
2461050.500000000, A.D. 2026-Jan-10 00:00:00.0000, 4.385206114870551E+08, -6.408906209262437E+07, 1.172410597726725E+06,
2461057.500000000, A.D. 2026-Jan-17 00:00:00.0000, 4.387534324443084E+08, -5.320473862858628E+07, 1.105243582568482E+06,
2461064.500000000, A.D. 2026-Jan-24 00:00:00.0000, 4.387395604649162E+08, -4.229054347442718E+07, 1.037455002742633E+06,
2461071.500000000, A.D. 2026-Jan-31 00:00:00.0000, 4.384769909647753E+08, -3.135242023733658E+07, 9.690783316648360E+05,
2461078.500000000, A.D. 2026-Feb-07 00:00:00.0000, 4.379638703274481E+08, -2.039642742324920E+07, 9.001479831355708E+05,
2461085.500000000, A.D. 2026-Feb-14 00:00:00.0000, 4.371985027914198E+08, -9.428735053054541E+06, 8.306992407089113E+05,
2461092.500000000, A.D. 2026-Feb-21 00:00:00.0000, 4.361793579901891E+08, 1.544379531701130E+06, 7.607681555314214E+05,
2461099.500000000, A.D. 2026-Feb-28 00:00:00.0000, 4.349050780342798E+08, 1.251653783570721E+07, 6.903916063610986E+05,
2461106.500000000, A.D. 2026-Mar-07 00:00:00.0000, 4.333744820525029E+08, 2.348126640637205E+07, 6.196075513434093E+05,
2461113.500000000, A.D. 2026-Mar-14 00:00:00.0000, 4.315865709420887E+08, 3.443200073112198E+07, 5.484550261494629E+05,
2461120.500000000, A.D. 2026-Mar-21 00:00:00.0000, 4.295405340820554E+08, 4.536208973750350E+07, 4.769739616728295E+05,
2461127.500000000, A.D. 2026-Mar-28 00:00:00.0000, 4.272357559740670E+08, 5.626480192749140E+07, 4.052050899274126E+05,
2461134.500000000, A.D. 2026-Apr-04 00:00:00.0000, 4.246718221817216E+08, 6.713333217938967E+07, 3.331899149720669E+05,
2461141.500000000, A.D. 2026-Apr-11 00:00:00.0000, 4.218485248154337E+08, 7.796080885305156E+07, 2.609706945984513E+05,
2461148.500000000, A.D. 2026-Apr-18 00:00:00.0000, 4.187658676937126E+08, 8.874030118503337E+07, 1.885904178149104E+05,
2461155.500000000, A.D. 2026-Apr-25 00:00:00.0000, 4.154240711971664E+08, 9.946482697982351E+07, 1.160927752832174E+05,
2461162.500000000, A.D. 2026-May-02 00:00:00.0000, 4.118235768162572E+08, 1.101273605571144E+08, 4.352211763758957E+04,
2461169.500000000, A.D. 2026-May-09 00:00:00.0000, 4.079650514882477E+08, 1.207208408762303E+08, -2.907661499756575E+04,
2461176.500000000, A.D. 2026-May-16 00:00:00.0000, 4.038493920723629E+08, 1.312381799602613E+08, -1.016580156152770E+05,
2461183.500000000, A.D. 2026-May-23 00:00:00.0000, 3.994777299844128E+08, 1.416722726235690E+08, -1.741763063412681E+05,
2461190.500000000, A.D. 2026-May-30 00:00:00.0000, 3.948514338823168E+08, 1.520160078036740E+08, -2.465851908636391E+05,
2461197.500000000, A.D. 2026-Jun-06 00:00:00.0000, 3.899721100613180E+08, 1.622622782036034E+08, -3.188377013477609E+05,
2461204.500000000, A.D. 2026-Jun-13 00:00:00.0000, 3.848416042012764E+08, 1.724039884169756E+08, -3.908863600504100E+05,
2461211.500000000, A.D. 2026-Jun-20 00:00:00.0000, 3.794620039386984E+08, 1.824340644331663E+08, -4.626833708195165E+05,
2461218.500000000, A.D. 2026-Jun-27 00:00:00.0000, 3.738356405414862E+08, 1.923454641533501E+08, -5.341807125232071E+05,
2461225.500000000, A.D. 2026-Jul-04 00:00:00.0000, 3.679650896658862E+08, 2.021311881109900E+08, -6.053301977719814E+05,
2461232.500000000, A.D. 2026-Jul-11 00:00:00.0000, 3.618531714314269E+08, 2.117842902309866E+08, -6.760835310754925E+05,
2461239.500000000, A.D. 2026-Jul-18 00:00:00.0000, 3.555029498907108E+08, 2.212978886173773E+08, -7.463923728909194E+05,
2461246.500000000, A.D. 2026-Jul-25 00:00:00.0000, 3.489177319052014E+08, 2.306651763348118E+08, -8.162084115823209E+05,
2461253.500000000, A.D. 2026-Aug-01 00:00:00.0000, 3.421010654647168E+08, 2.398794320968915E+08, -8.854834515688270E+05,
2461260.500000000, A.D. 2026-Aug-08 00:00:00.0000, 3.350567376585787E+08, 2.489340307856682E+08, -9.541695401877463E+05,
2461267.500000000, A.D. 2026-Aug-15 00:00:00.0000, 3.277887727101300E+08, 2.578224542111089E+08, -1.022219134498447E+06,
2461274.500000000, A.D. 2026-Aug-22 00:00:00.0000, 3.203014293112606E+08, 2.665383032875685E+08, -1.089585138419747E+06,
2461281.500000000, A.D. 2026-Aug-29 00:00:00.0000, 3.125991949665682E+08, 2.750753102124549E+08, -1.156220711909577E+06,
2461288.500000000, A.D. 2026-Sep-05 00:00:00.0000, 3.046867794884542E+08, 2.834273477403247E+08, -1.222079281694934E+06,
$$EOE